MEXSAT 3                
1 39035U 12075B   24265.50166997 -.00000034  00000+0  00000+0 0  9993
2 39035   0.0200 116.6645 0001763  54.2275 255.7728  1.00272019   698
TDRS 11                 
1 39070U 13004A   24265.58323021  .00000073  00000+0  00000+0 0  9998
2 39070   2.7999  14.9632 0003570  65.6021 316.1877  1.00279446 40344
AMAZONAS 3              
1 39078U 13006A   24265.51235625 -.00000291  00000+0  00000+0 0  9996
2 39078   0.0360 231.7494 0005181 327.8651 284.7265  1.00272846 38561
AZERSPACE 1             
1 39079U 13006B   24265.31229963  .00000124  00000+0  00000+0 0  9997
2 39079   0.0163 184.4527 0002475  37.9897 296.6727  1.00274473 42454
SBIRS GEO-2 (USA 241)   
1 39120U 13011A   24265.44537149 -.00000264  00000+0  00000+0 0  9998
2 39120   3.1632  48.6002 0001769 142.8896 291.6635  1.00271721 42181
EUTELSAT 117 WEST A     
1 39122U 13012A   24265.50123556 -.00000021  00000+0  00000+0 0  9992
2 39122   0.0095 166.4814 0002892  17.9644 240.0490  1.00270027 42076
ANIK G1                 
1 39127U 13014A   24265.50314694 -.00000083  00000+0  00000+0 0  9992
2 39127   0.0194 199.4646 0002598  16.4024 218.8421  1.00271191 41898
ZHONGXING-11            
1 39157U 13020A   24265.55257484 -.00000300  00000+0  00000+0 0  9992
2 39157   0.0216 243.0550 0002922  43.2047  11.4854  1.00270644 41541
EUTELSAT 7B             
1 39163U 13022A   24265.32618764  .00000039  00000+0  00000+0 0  9996
2 39163   0.0687   6.6728 0000777 340.5758 137.8686  1.00272440 41607
WGS F5 (USA 243)        
1 39168U 13024A   24265.51357258 -.00000293  00000+0  00000+0 0  9995
2 39168   0.0199 164.1868 0001574  62.7004 266.3657  1.00268975 40825
SES-6                   
1 39172U 13026A   24265.44493707 -.00000270  00000+0  00000+0 0  9999
2 39172   0.0453 335.7332 0002191 207.9279 296.8480  1.00271285 41379
IRNSS-1A                
1 39199U 13034A   24265.53555332  .00000079  00000+0  00000+0 0  9996
2 39199  34.2950  73.0363 0021066 179.7939 356.0647  1.00268295 41018
MUOS-2                  
1 39206U 13036A   24265.57688397  .00000057  00000+0  00000+0 0  9995
2 39206   3.7892  41.7549 0055766 177.8970 171.9263  1.00271919 40833
ALPHASAT                
1 39215U 13038A   24265.38105061  .00000126  00000+0  00000+0 0  9995
2 39215   2.9029   6.7428 0003944 195.5851 320.4453  1.00270573 37663
INSAT-3D                
1 39216U 13038B   24265.55023609 -.00000348  00000+0  00000+0 0  9999
2 39216   0.2797  92.2350 0001856 111.8267 124.5010  1.00270131 40726
WGS F6 (USA 244)        
1 39222U 13041A   24264.13901942  .00000081  00000+0  00000+0 0  9991
2 39222   0.0093 191.7021 0000518  62.0424  20.6330  1.00271488 39686
ES'HAIL 1               
1 39233U 13044A   24265.38105061  .00000134  00000+0  00000+0 0  9991
2 39233   0.0568   7.6168 0002215 183.9093 331.9065  1.00273730 40275
GSAT-7                  
1 39234U 13044B   24265.24771867 -.00000086  00000+0  00000+0 0  9997
2 39234   0.0407 104.5597 0008641 155.0397 264.2078  1.00271526 38963
AMOS-4                  
1 39237U 13045A   24265.53737780 -.00000002  00000+0  00000+0 0  9997
2 39237   0.0259 222.3279 0001583  15.3906  21.6555  1.00273323 40605
AEHF-3 (USA 246)        
1 39256U 13050A   24265.52618969  .00000053  00000+0  00000+0 0  9995
2 39256   3.7157  72.2390 0070982 175.0396 165.6926  1.00594023 39315
ASTRA 2E                
1 39285U 13056A   24265.53016674  .00000141  00000+0  00000+0 0  9997
2 39285   0.0669 335.8274 0003035 211.3371  33.0904  1.00274593 40072
FM-6                    
1 39360U 13058A   24265.50140932 -.00000026  00000+0  00000+0 0  9998
2 39360   0.0225 235.8396 0000164 161.0090  28.3795  1.00273553 39705
RADUGA-1M 3             
1 39375U 13062A   24265.53146994  .00000147  00000+0  00000+0 0  9999
2 39375   4.3394  80.0576 0003865 284.7144 222.4285  1.00270288 39757
SES-8                   
1 39460U 13071A   24265.57618860 -.00000279  00000+0  00000+0 0  9991
2 39460   0.0355 259.8936 0001954 256.8780 146.5924  1.00270710 38071
INMARSAT 5-F1           
1 39476U 13073A   24263.69979907  .00000019  00000+0  00000+0 0  9994
2 39476   0.0215 131.2807 0000562  76.5088 105.8635  1.00269915 39214
TKSAT-1 (TUPAC KATARI)  
1 39481U 13075A   24265.50714343 -.00000204  00000+0  00000+0 0  9992
2 39481   0.0417   4.3730 0002486 178.6453 273.2342  1.00271262 39242
EXPRESS-AM5             
1 39487U 13077A   24265.40922922 -.00000289  00000+0  00000+0 0  9996
2 39487   0.0185 204.4954 0000878  66.2758  17.3522  1.00270863 40003
GSAT-14                 
1 39498U 14001A   24265.24771867 -.00000086  00000+0  00000+0 0  9993
2 39498   0.0192 220.9487 0005219  11.2742 291.5711  1.00271328 39038
THAICOM 6               
1 39500U 14002A   24265.54007111 -.00000130  00000+0  00000+0 0  9995
2 39500   0.0426 122.2015 0003536  61.6795  89.9354  1.00271254 39108
TDRS 12                 
1 39504U 14004A   24265.30175821 -.00000278  00000+0  00000+0 0  9992
2 39504   3.5686   5.6724 0006123 213.5152 209.1553  1.00267232 37925
ABS-2                   
1 39508U 14006A   24265.59841324 -.00000095  00000+0  00000+0 0  9994
2 39508   0.0156 160.4315 0003553  17.4045 113.4686  1.00270145 38927
ATHENA-FIDUS            
1 39509U 14006B   24265.53199123  .00000145  00000+0  00000+0 0  9997
2 39509   0.0140 184.2206 0001346  21.5075  24.4740  1.00271041 38727
TURKSAT 4A              
1 39522U 14007A   24265.53277316  .00000137  00000+0  00000+0 0  9995
2 39522   0.0651 263.7603 0003866 314.1445  16.7799  1.00272804 38629
EXPRESS-AT1             
1 39612U 14010A   24265.53564021  .00000069  00000+0  00000+0 0  9995
2 39612   0.0156 221.7495 0000210  38.2916 349.6990  1.00272897 38464
EXPRESS-AT2             
1 39613U 14010B   24265.55952264 -.00000290  00000+0  00000+0 0  9995
2 39613   0.0130 235.4432 0001114  52.0248  54.7358  1.00271468 38146
AMAZONAS 4A             
1 39616U 14011A   24265.50974984 -.00000261  00000+0  00000+0 0  9995
2 39616   0.0563 204.5572 0004290 352.6314 273.2165  1.00270491 38343
ASTRA 5B                
1 39617U 14011B   24265.52912417  .00000128  00000+0  00000+0 0  9992
2 39617   0.0792 307.0207 0003557 259.6616   8.1811  1.00272057 38318
IRNSS-1B                
1 39635U 14017A   24265.53546644  .00000100  00000+0  00000+0 0  9994
2 39635  28.8051 251.1943 0020184 188.4950 168.9986  1.00270675 38430
LUCH-5V                 
1 39727U 14023A   24265.54328567 -.00000277  00000+0  00000+0 0  9992
2 39727   3.5363  75.2941 0003553 148.6468  67.2681  1.00274717 38001
KAZSAT-3                
1 39728U 14023B   24265.53607459  .00000053  00000+0  00000+0 0  9993
2 39728   0.0132 130.2462 0000575 190.9719 291.1668  1.00263001 36092
EUTELSAT 3B             
1 39773U 14030A   24265.33174199  .00000011  00000+0  00000+0 0  9993
2 39773   0.0629 354.1841 0005085 191.1157 297.9174  1.00270523 37714
ASIASAT 8 (AMOS-7)      
1 40107U 14046A   24265.38064559 -.00000042  00000+0  00000+0 0  9991
2 40107   0.0031 208.0885 0002036 350.7939 294.9903  1.00271308 95794
ASIASAT 6               
1 40141U 14052A   24265.49632854 -.00000371  00000+0  00000+0 0  9992
2 40141   0.0419  93.2968 0000877  91.3696 114.7804  1.00272325 36713
OPTUS 10                
1 40146U 14054A   24265.41038073 -.00000156  00000+0  00000+0 0  9995
2 40146   0.0251 189.7540 0003879   9.1552 105.6062  1.00270998 36676
MEASAT-3B               
1 40147U 14054B   24265.57618860 -.00000251  00000+0  00000+0 0  9997
2 40147   0.0457  41.8668 0001375  67.7274 190.2859  1.00271399 36562
LUCH (OLYMP-K 1)        
1 40258U 14058A   24265.37786542 -.00000150  00000+0  00000+0 0  9993
2 40258   0.2483  89.7581 0001414 192.5703 196.3378  1.00272437 34643
HIMAWARI-8              
1 40267U 14060A   24263.90765358 -.00000283  00000+0  00000+0 0  9992
2 40267   0.0235 192.9828 0000799 333.1765 300.5293  1.00275749 36380
IRNSS-1C                
1 40269U 14061A   24265.54093990 -.00000169  00000+0  00000+0 0  9996
2 40269   4.9028 102.4454 0020588   4.4249 171.7978  1.00269150 36331
INTELSAT 30 (IS-30)     
1 40271U 14062A   24263.07827199 -.00000159  00000+0  00000+0 0  9991
2 40271   0.0139 179.2510 0001778 192.3047 280.0236  1.00267968 36383
ARSAT 1                 
1 40272U 14062B   24265.51018425 -.00000269  00000+0  00000+0 0  9999
2 40272   0.0366 316.8092 0001907 227.7536 288.1762  1.00273078 36269
EXPRESS-AM6             
1 40277U 14064A   24265.50952096  .00000089  00000+0  00000+0 0  9995
2 40277   0.0183 154.4384 0000974  19.7229  63.1398  1.00273168 35223
GSAT-16                 
1 40332U 14078A   24265.50396682  .00000076  00000+0  00000+0 0  9991
2 40332   0.0095 199.0445 0005443 272.3886 125.9359  1.00271977 35750
DIRECTV 14              
1 40333U 14078B   24265.50427639 -.00000134  00000+0  00000+0 0  9995
2 40333   0.0302 281.9251 0000258 199.9610 321.2943  1.00270561 35709
YAMAL 401               
1 40345U 14082A   24265.32782233 -.00000237  00000+0  00000+0 0  9991
2 40345   0.0115 179.1228 0000364 352.5967  36.9359  1.00269488 35567
ASTRA 2G                
1 40364U 14089A   24265.53007985  .00000141  00000+0  00000+0 0  9999
2 40364   0.0594   4.9116 0001904  93.4010 121.5931  1.00272891 35616
FENGYUN 2G              
1 40367U 14090A   24265.48591046 -.00000310  00000+0  00000+0 0  9993
2 40367   4.0328  80.3812 0002978 163.9846  31.0767  1.00271528 35642
MUOS-3                  
1 40374U 15002A   24265.18174403 -.00000135  00000+0  00000+0 0  9991
2 40374   3.3863  36.9849 0061098 177.7722 195.7452  1.00271279 35234
INMARSAT 5-F2           
1 40384U 15005A   24264.08289469 -.00000293  00000+0  00000+0 0  9997
2 40384   0.0195 141.7220 0000541  80.0998 112.4535  1.00270567 34621
ABS-3A                  
1 40424U 15010A   24265.38081935 -.00000035  00000+0  00000+0 0  9994
2 40424   0.0062 176.8743 0001501 312.4297   5.5384  1.00271108 35020
